{"spkid": "50092544", "covariance": {"epoch": "2457155.5", "labels": ["e", "q", "tp", "node", "peri", "i"], "elements": [{"label": "e", "units": null, "title": "eccentricity", "value": ".4948290657283323", "name": "e", "sigma": 2.92768652131172e-07}, {"label": "q", "value": ".9124378596582488", "title": "perihelion distance", "units": "au", "sigma": 5.29881436682289e-07, "name": "q"}, {"value": "2457526.191211033658", "title": "time of perihelion passage", "units": "TDB", "sigma": 0.000119584132423224, "name": "tp", "label": "tp"}, {"units": "deg", "title": "longitude of the ascending node", "value": "65.96783913747987", "sigma": 3.37127397802742e-05, "name": "om", "label": "node"}, {"label": "peri", "sigma": 0.000167043097897322, "name": "w", "units": "deg", "value": "315.5970761020537", "title": "argument of perihelion"}, {"label": "i", "title": "inclination", "value": "7.703197550427933", "units": "deg", "name": "i", "sigma": 3.89474493168139e-05}], "data": [["8.571348367070322E-14", "-1.551324628628425E-13", "-3.363643450425196E-11", "5.628504832153078E-12", "-4.677765565210548E-11", "9.255481526777381E-12"], ["-1.551324628628425E-13", "2.807743369404864E-13", "6.086334983979151E-11", "-1.017153350433757E-11", "8.463563572196065E-11", "-1.673997132617978E-11"], ["-3.363643450425196E-11", "6.086334983979151E-11", "1.430036472741524E-8", "-2.873115408814994E-9", "1.984466804982774E-8", "-4.274268238303488E-9"], ["5.628504832153078E-12", "-1.017153350433757E-11", "-2.873115408814994E-9", "1.136548823492484E-9", "-4.33166380787458E-9", "1.154843245273749E-9"], ["-4.677765565210548E-11", "8.463563572196065E-11", "1.984466804982774E-8", "-4.33166380787458E-9", "2.790339655513434E-8", "-6.075058718981257E-9"], ["9.255481526777381E-12", "-1.673997132617978E-11", "-4.274268238303488E-9", "1.154843245273749E-9", "-6.075058718981257E-9", "1.516903808285784E-9"]]}, "elements": [{"label": "e", "sigma": "2.9536E-7", "name": "e", "title": "eccentricity", "value": ".4939644875796089", "units": null}, {"label": "a", "title": "semi-major axis", "value": "1.804717519114758", "units": "au", "sigma": "2.7665E-8", "name": "a"}, {"units": "au", "value": ".9132511545592932", "title": "perihelion distance", "name": "q", "sigma": "5.2062E-7", "label": "q"}, {"label": "i", "units": "deg", "value": "7.719816336368252", "title": "inclination; angle with respect to x-y ecliptic plane", "name": "i", "sigma": "3.8845E-5"}, {"sigma": "3.3708E-5", "name": "om", "units": "deg", "value": "65.84912909474522", "title": "longitude of the ascending node", "label": "node"}, {"label": "peri", "units": "deg", "value": "315.7551800782568", "title": "argument of perihelion", "sigma": ".00016636", "name": "w"}, {"sigma": "2.4061E-5", "name": "ma", "units": "deg", "title": "mean anomaly", "value": "52.91224685719232", "label": "M"}, {"label": "tp", "title": "time of perihelion passage", "value": "2461070.343464163830", "units": "TDB", "sigma": "6.1868E-5", "name": "tp"}, {"title": "sidereal orbital period", "value": "885.5483500348131", "units": "d", "name": "per", "sigma": "2.0362E-5", "label": "period"}, {"label": "n", "sigma": "9.3478E-9", "name": "n", "units": "deg/d", "title": "mean motion", "value": ".4065277745544301"}, {"units": "au", "value": "2.696183883670222", "title": "aphelion distance", "sigma": "4.1331E-8", "name": "ad", "label": "Q"}], "epoch": "2461200.5"}